SCD 1                   
1 22490U 93009B   25232.25592640  .00000429  00000+0  66421-4 0  9992
2 22490  24.9689 265.3565 0041982 193.0438 210.6150 14.45889219717912
TECHSAT 1B (GO-32)      
1 25397U 98043D   25232.20457854  .00000067  00000+0  49300-4 0  9991
2 25397  98.9770 212.8402 0001774  41.1152 319.0159 14.24330517408707
SCD 2                   
1 25504U 98060A   25232.15262639  .00000404  00000+0  62140-4 0  9991
2 25504  24.9946 128.3819 0016820 181.7516 311.8357 14.45328384417080
DLR-TUBSAT              
1 25757U 99029B   25232.50620517  .00000100  00000+0  36464-4 0  9992
2 25757  98.6423 213.5633 0014178 179.8072 180.3130 14.52292606389708
TERRA                   
1 25994U 99068A   25232.49579035  .00000365  00000+0  83900-4 0  9994
2 25994  97.9931 288.2581 0003661  97.6341  14.8407 14.60766452365828
MAROC-TUBSAT            
1 27004U 01056D   25231.96509272 -.00000011  00000+0  39751-4 0  9999
2 27004  99.7855  38.4346 0019661 192.3232 289.5276 13.70245649184936
AQUA                    
1 27424U 02022A   25232.51024094  .00000830  00000+0  17745-3 0  9991
2 27424  98.3831 191.6912 0001287 111.3588   0.6634 14.61413210239384
IRS-P6 (RESOURCESAT-1)  
1 28051U 03046A   25232.45618146  .00000173  00000+0  71778-4 0  9992
2 28051  98.2362 278.0395 0064602 163.2891 313.7720 14.36003515137394
SHIYAN-1 (SY-1)         
1 28220U 04012A   25232.18066666  .00010341  00000+0  42541-3 0  9991
2 28220  97.9121 287.2080 0006633   8.6285 351.5064 15.24339129165273
AURA                    
1 28376U 04026A   25231.91693680  .00000836  00000+0  18189-3 0  9999
2 28376  98.2979 181.7755 0001429  93.6037 266.5327 14.60552377122220
IRS-P5 (CARTOSAT-1)     
1 28649U 05017A   25232.32454027  .00001310  00000+0  14179-3 0  9992
2 28649  97.5640 263.7446 0001558  53.4135 306.7226 14.89851863 99078
SINAH 1                 
1 28893U 05043D   25231.91754616  .00000391  00000+0  84204-4 0  9998
2 28893  98.2457   0.2849 0015433 136.6792 223.5627 14.63775056 56440
EROS B                  
1 29079U 06014A   25232.44392609  .00044478  00000+0  95673-3 0  9998
2 29079  97.3495 346.0729 0005050 165.8975 194.2416 15.44505108 73064
RESURS-DK 1             
1 29228U 06021A   25232.48857930  .00001978  00000+0  12360-3 0  9999
2 29228  69.9339  36.8820 0002029  30.7749 329.3535 15.11258382 57136
ARIRANG-2 (KOMPSAT-2)   
1 29268U 06031A   25232.53614689  .00000274  00000+0  60274-4 0  9998
2 29268  97.8353  66.5380 0013437 311.5216 109.0192 14.64349358 17578
LAPAN-TUBSAT            
1 29709U 07001A   25232.47635911  .00000582  00000+0  74046-4 0  9994
2 29709  98.1155 220.3444 0013736  85.4900 274.7883 14.85419425  6517
HAIYANG-1B              
1 31113U 07010A   25232.19785668  .00000098  00000+0  53138-4 0  9991
2 31113  98.3194 221.2616 0014008  19.1018 341.0688 14.30911668958324
COSMO-SKYMED 1          
1 31598U 07023A   25232.48402545  .00002182  00000+0  20658-3 0  9990
2 31598  97.8894  57.2055 0001434  86.4623 273.6761 14.94686016984893
TERRASAR-X              
1 31698U 07026A   25230.85639199  .00001079  00000+0  54574-4 0  9999
2 31698  97.4463 237.8998 0001761  83.4201 276.7234 15.19147537  7327
WORLDVIEW-1 (WV-1)      
1 32060U 07041A   25231.86189591  .00007521  00000+0  30676-3 0  9992
2 32060  97.3833 350.9774 0002255 139.7962 220.3443 15.24718156997027
YAOGAN-3                
1 32289U 07055A   25232.47557504  .00001873  00000+0  20462-3 0  9997
2 32289  97.8505 260.0929 0001466  81.1598 278.9785 14.89071071961142
COSMO-SKYMED 2          
1 32376U 07059A   25232.46919091  .00000448  00000+0  62890-4 0  9999
2 32376  97.8898  55.4322 0001481  90.4084 269.7299 14.82159035957533
RADARSAT-2              
1 32382U 07061A   25232.51294308  .00000069  00000+0  43573-4 0  9998
2 32382  98.5807 238.7296 0001238  90.9757 269.1567 14.29980799923092
CARTOSAT-2A             
1 32783U 08021A   25232.45438413  .00000624  00000+0  91770-4 0  9999
2 32783  97.8099 285.7534 0011489  15.7142 344.4424 14.78719056934441
HUANJING 1A (HJ-1A)     
1 33320U 08041A   25232.47556670  .00001252  00000+0  16021-3 0  9990
2 33320  97.6454 225.6246 0020586  49.3104 310.9895 14.82879364913928
HUANJING 1B (HJ-1B)     
1 33321U 08041B   25232.52826637  .00001021  00000+0  13225-3 0  9997
2 33321  97.6334 229.6479 0038627  90.1079 270.4561 14.82386869913943
GEOEYE 1                
1 33331U 08042A   25231.89378947  .00000401  00000+0  84222-4 0  9991
2 33331  98.1178 304.6208 0002959 290.5115  69.5770 14.64746292906048
THEOS                   
1 33396U 08049A   25232.46839005  .00000033  00000+0  35558-4 0  9999
2 33396  98.6044 293.8212 0001259  97.4514 262.6806 14.20061636875303
COSMO-SKYMED 3          
1 33412U 08054A   25232.54747179  .00003147  00000+0  23225-3 0  9999
2 33412  97.8624  81.0460 0016247 199.2684 160.7929 15.03928935911706
YAOGAN-4                
1 33446U 08061A   25232.53173969  .00001067  00000+0  14033-3 0  9999
2 33446  97.9042 163.9025 0013909 335.7703  24.2855 14.82197653901113
GOSAT (IBUKI)           
1 33492U 09002A   25232.31974759  .00000762  00000+0  14282-3 0  9995
2 33492  98.0682 342.5770 0000702  91.0024 269.1261 14.67550621887792
DEIMOS-1                
1 35681U 09041A   25232.46091133  .00000593  00000+0  95931-4 0  9995
2 35681  97.7075  38.4580 0002736  86.7140 273.4382 14.74687427862557
DUBAISAT-1              
1 35682U 09041B   25232.43778113  .00000943  00000+0  15055-3 0  9990
2 35682  97.9642   4.9487 0009769 322.2146  37.8376 14.74117285860835
OCEANSAT-2              
1 35931U 09051A   25232.52364708  .00000156  00000+0  13214-3 0  9990
2 35931  98.2234 244.6727 0016214  11.6752 348.4787 13.99595747837276
WORLDVIEW-2 (WV-2)      
1 35946U 09055A   25232.30801550  .00000117  00000+0  53710-4 0  9990
2 35946  98.4805 304.9991 0005118  55.4036 304.7633 14.37363338832512
SMOS                    
1 36036U 09059A   25231.92329803  .00000245  00000+0  92133-4 0  9992
2 36036  98.4436  58.6368 0001386  81.6504 278.4841 14.39780238830103
YAOGAN-7                
1 36110U 09069A   25232.38836489  .00000438  00000+0  68732-4 0  9992
2 36110  98.0448 114.5020 0023514 290.0006  69.8672 14.77496990845248
TANDEM-X                
1 36605U 10030A   25230.79052308  .00000581  00000+0  30848-4 0  9990
2 36605  97.4470 237.8340 0001772  91.6923 268.4514 15.19146392840730
CARTOSAT-2B             
1 36795U 10035A   25232.49019609  .00000633  00000+0  92959-4 0  9990
2 36795  97.8036 285.1031 0013007  87.4481 272.8219 14.78731865815496
YAOGAN-10               
1 36834U 10038A   25232.53662042  .00000610  00000+0  79165-4 0  9996
2 36834  97.9250 253.1475 0001544  86.8000  66.0735 14.84303617812668
COSMO-SKYMED 4          
1 37216U 10060A   25232.48183551  .00000459  00000+0  64179-4 0  9993
2 37216  97.8897  55.4467 0001365  87.9091 272.2279 14.82162396800088
RESOURCESAT-2           
1 37387U 11015A   25232.48327900  .00000073  00000+0  53484-4 0  9990
2 37387  98.8038 296.4501 0005923  15.7527 344.3833 14.21590100743981
HAIYANG-2A              
1 37781U 11043A   25232.48931718  .00000003  00000+0  46011-4 0  9998
2 37781  99.3359 235.1663 0001491  59.1149 301.0149 13.78823195705496
RASAT                   
1 37791U 11044D   25232.50081108  .00000501  00000+0  96357-4 0  9993
2 37791  98.0680 323.4603 0021949  67.1220 304.1275 14.67668358749099
SRMSAT                  
1 37841U 11058D   25232.30140255  .00000390  00000+0  67985-4 0  9992
2 37841  19.9723  80.5226 0011792 133.9243  22.6128 14.11454217715479
PLEIADES 1A             
1 38012U 11076F   25232.45077086  .00000279  00000+0  69750-4 0  9998
2 38012  98.1945 306.9068 0001290  79.8718  11.6213 14.58558533728161
ZIYUAN 1-02C (ZY 1-02C) 
1 38038U 11079A   25232.50714921  .00000384  00000+0  14172-3 0  9995
2 38038  98.4487 300.5476 0007542 122.4873   6.5699 14.37832516716047
ZIYUAN 3-1 (ZY 3-1)     
1 38046U 12001A   25232.45799698  .00021212  00000+0  31230-3 0  9995
2 38046  97.1948 297.4004 0004030  55.5846 304.5789 15.55444213757196
ARIRANG-3 (KOMPSAT-3)   
1 38338U 12025B   25232.48530916  .00000446  00000+0  99608-4 0  9994
2 38338  98.3112 186.3632 0005228 335.3451  24.7499 14.61491993707502
EXACTVIEW-1 (ADS-1B)    
1 38709U 12039C   25232.28305038  .00000093  00000+0  59682-4 0  9990
2 38709  98.9566 338.3324 0010183 323.0993  36.9483 14.24839062679857
SPOT 6                  
1 38755U 12047A   25232.44912498  .00000261  00000+0  65830-4 0  9991
2 38755  98.1727 299.2396 0001081  97.4989 262.6333 14.58568388689240
PLEIADES 1B             
1 39019U 12068A   25232.46745453  .00000259  00000+0  65631-4 0  9991
2 39019  98.1917 306.8450 0001242  89.3648 270.7694 14.58552726677013
GOKTURK 2               
1 39030U 12073A   25232.49113229  .00000423  00000+0  69724-4 0  9993
2 39030  97.7046  79.6936 0001018 107.2711 252.8611 14.75073340680204
LANDSAT 8               
1 39084U 13008A   25232.45880539  .00000298  00000+0  76127-4 0  9997
2 39084  98.2213 302.1294 0001185  93.2911 266.8423 14.57110932665924
SARAL                   
1 39086U 13009A   25232.26483027  .00000103  00000+0  54066-4 0  9993
2 39086  98.5550  57.6686 0003072  94.2467 265.9068 14.32701231652511
GAOFEN-1                
1 39150U 13018A   25232.51264148  .00000561  00000+0  87732-4 0  9998
2 39150  97.9459 305.1071 0018343 151.5868 208.6346 14.76484250663918
VNREDSAT 1              
1 39160U 13021B   25232.48751487  .00000541  00000+0  10955-3 0  9996
2 39160  97.9441 291.7103 0001393  86.8077 273.3286 14.65014861656284
ARIRANG-5 (KOMPSAT-5)   
1 39227U 13042A   25232.48167160  .00001366  00000+0  10184-3 0  9992
2 39227  97.6202  58.3764 0003930  84.5005 275.6670 15.04515006658707
SKYSAT-A                
1 39418U 13066C   25231.70992771  .00002791  00000+0  17279-3 0  9993
2 39418  97.4295 285.3811 0021048 275.2197  84.6630 15.10434916642934
DUBAISAT-2              
1 39419U 13066D   25232.48564671  .00003385  00000+0  23061-3 0  9990
2 39419  97.4364 226.5769 0011459 354.3483   5.7614 15.06867854641057
